NORAD_CAT_ID,OBJECT_NAME,OBJECT_TYPE,EPOCH,MEAN_MOTION,ECCENTRICITY,INCLINATION,RA_OF_ASC_NODE,ARG_OF_PERICENTER,MEAN_ANOMALY,BSTAR,MEAN_MOTION_DOT,MEAN_MOTION_DDOT,TLE_LINE0,TLE_LINE1,TLE_LINE2,SEMIMAJOR_AXIS,PERIOD,APOGEE,PERIGEE,DECAYED
53151.0,STARLINK-4040,PAYLOAD,2022-08-18 22:00:00,15.73210536,0.0002808,53.2157,246.8591,17.3886,29.574,0.00035606,0.00049675,0.0,0 STARLINK-4040,1 53151U 22083V   22230.91667824  .00049675  00000-0  35606-3 0  9996,2 53151  53.2157 246.8591 0002808  17.3886  29.5740 15.73210536  1300,6727.865,91.533,351.619,347.841,0.0
53151.0,STARLINK-4040,PAYLOAD,2022-08-19 04:00:01,15.73282024,0.0002862,53.2158,245.6228,18.0727,5.6663,-0.00092674,-0.00129194,0.0,0 STARLINK-4040,1 53151U 22083V   22231.16668981 -.00129194  00000-0 -92674-3 0  9994,2 53151  53.2158 245.6228 0002862  18.0727   5.6663 15.73282024  5772,6727.661,91.528,351.452,347.601,0.0
53151.0,STARLINK-4040,PAYLOAD,2022-08-19 14:00:01,15.73150151,0.0002981,53.2148,243.5619,13.4346,211.4243,-0.00011207,-0.0001629,0.0,0 STARLINK-4040,1 53151U 22083V   22231.58334491 -.00016290  00000-0 -11207-3 0  9991,2 53151  53.2148 243.5619 0002981  13.4346 211.4243 15.73150151  1301,6728.0369999999975,91.536,351.908,347.897,0.0
53151.0,STARLINK-4040,PAYLOAD,2022-08-19 20:00:01,15.73102877,0.0002735,53.2151,242.3234,13.1741,188.3242,0.00052249,0.0007304999999999,0.0,0 STARLINK-4040,1 53151U 22083V   22231.83334491  .00073050  00000-0  52249-3 0  9995,2 53151  53.2151 242.3234 0002735  13.1741 188.3242 15.73102877  5888,6728.172,91.539,351.87699999999984,348.19699999999995,0.0
53151.0,STARLINK-4040,PAYLOAD,2022-08-19 22:00:00,15.73100941,0.0002691,53.2149,241.9107,14.2753,299.4336,0.00070446,0.00099007,0.0,0 STARLINK-4040,1 53151U 22083V   22231.91667824  .00099007  00000-0  70446-3 0  9992,2 53151  53.2149 241.9107 0002691  14.2753 299.4336 15.73100941  1306,6728.178000000001,91.539,351.853,348.232,0.0
53151.0,STARLINK-4040,PAYLOAD,2022-08-20 12:00:00,15.73166769,0.0003021,53.2151,239.0268,14.4486,4.7787,0.00066948,0.00094277,0.0,0 STARLINK-4040,1 53151U 22083V   22232.50001157  .00094277  00000-0  66948-3 0  9995,2 53151  53.2151 239.0268 0003021  14.4486   4.7787 15.73166769  5983,6727.99,91.535,351.88699999999994,347.82199999999995,0.0
53151.0,STARLINK-4040,PAYLOAD,2022-08-20 14:00:01,15.73203106,0.0002976999999999,53.2152,238.6139,14.6907,116.7565,0.00028816,0.00040025,0.0,0 STARLINK-4040,1 53151U 22083V   22232.58334491  .00040025  00000-0  28816-3 0  9997,2 53151  53.2152 238.6139 0002977  14.6907 116.7565 15.73203106  1302,6727.886,91.533,351.754,347.74800000000016,0.0
53151.0,STARLINK-4040,PAYLOAD,2022-08-20 22:00:00,15.73224559,0.0002722,53.2152,236.9625,15.7172,204.6717,0.00028433,0.00039517,0.0,0 STARLINK-4040,1 53151U 22083V   22232.91667824  .00039517  00000-0  28433-3 0  9992,2 53151  53.2152 236.9625 0002722  15.7172 204.6717 15.73224559  1308,6727.825,91.532,351.521,347.8590000000001,0.0
53151.0,STARLINK-4040,PAYLOAD,2022-08-21 06:00:00,15.73216356,0.0002908999999999,53.2148,235.3147,13.6328,295.7126,-0.00025163,-0.0003582,0.0,0 STARLINK-4040,1 53151U 22083V   22233.25001157 -.00035820  00000-0 -25163-3 0  9993,2 53151  53.2148 235.3147 0002909  13.6328 295.7126 15.73216356  6106,6727.849,91.532,351.671,347.756,0.0
53151.0,STARLINK-4040,PAYLOAD,2022-08-21 14:00:01,15.73199186,0.0002912,53.2142,233.6652,10.0408,28.2427,-0.00016686,-0.00023978,0.0,0 STARLINK-4040,1 53151U 22083V   22233.58334491 -.00023978  00000-0 -16686-3 0  9990,2 53151  53.2142 233.6652 0002912  10.0408  28.2427 15.73199186  1307,6727.897,91.533,351.722,347.80300000000005,0.0
53151.0,STARLINK-4040,PAYLOAD,2022-08-21 22:00:00,15.73161873,0.0002618,53.2143,232.0141,11.1127,116.0816,0.00058369,0.00081974,0.0,0 STARLINK-4040,1 53151U 22083V   22233.91667824  .00081974  00000-0  58369-3 0  9998,2 53151  53.2143 232.0141 0002618  11.1127 116.0816 15.73161873  6212,6728.004,91.535,351.63,348.107,0.0
53151.0,STARLINK-4040,PAYLOAD,2022-08-22 12:00:00,15.73234867,0.0002972,53.2144,229.1297,13.4253,179.3861,-0.00029946,-0.00042511,0.0,0 STARLINK-4040,1 53151U 22083V   22234.50001157 -.00042511  00000-0 -29946-3 0  9990,2 53151  53.2144 229.1297 0002972  13.4253 179.3861 15.73234867  6306,6727.795999999999,91.531,351.66,347.661,0.0
53151.0,STARLINK-4040,PAYLOAD,2022-08-22 22:00:00,15.73177205,0.0002801,53.2146,227.0654,19.655,14.3389,0.00052875,0.0007417999999999,0.0,0 STARLINK-4040,1 53151U 22083V   22234.91667824  .00074180  00000-0  52875-3 0  9996,2 53151  53.2146 227.0654 0002801  19.6550  14.3389 15.73177205  1301,6727.96,91.535,351.71,347.941,0.0
53151.0,STARLINK-4040,PAYLOAD,2022-08-23 04:00:00,15.73230296,0.0002948999999999,53.2145,225.8298,18.914,351.7633,-0.00013365,-0.00019365,0.0,0 STARLINK-4040,1 53151U 22083V   22235.16667824 -.00019365  00000-0 -13365-3 0  9991,2 53151  53.2145 225.8298 0002949  18.9140 351.7633 15.73230296  6406,6727.809,91.531,351.658,347.69,0.0
53151.0,STARLINK-4040,PAYLOAD,2022-08-23 14:00:01,15.73212287,0.0002953999999999,53.2137,223.7679,16.2162,195.6561,-0.00033045,-0.00046778,0.0,0 STARLINK-4040,1 53151U 22083V   22235.58334491 -.00046778  00000-0 -33045-3 0  9993,2 53151  53.2137 223.7679 0002954  16.2162 195.6561 15.73212287  1307,6727.86,91.532,351.713,347.73800000000006,0.0
53151.0,STARLINK-4040,PAYLOAD,2022-08-23 22:00:01,15.73174517,0.000269,53.214,222.1167,18.0827,282.7789,0.00049413,0.00069233,0.0,0 STARLINK-4040,1 53151U 22083V   22235.91668981  .00069233  00000-0  49413-3 0  9999,2 53151  53.2140 222.1167 0002690  18.0827 282.7789 15.73174517  1304,6727.968000000003,91.535,351.64300000000014,348.023,0.0
53151.0,STARLINK-4040,PAYLOAD,2022-08-24 14:00:01,15.73262504,0.0002921999999999,53.2143,218.8191,16.6018,102.0542,-0.00037192,-0.00052646,0.0,0 STARLINK-4040,1 53151U 22083V   22236.58334491 -.00052646  00000-0 -37192-3 0  9992,2 53151  53.2143 218.8191 0002922  16.6018 102.0542 15.73262504  1305,6727.717,91.53,351.548,347.616,0.0
53151.0,STARLINK-4040,PAYLOAD,2022-08-24 22:00:00,15.73204416,0.0002717,53.2145,217.168,17.3949,190.2507,0.00014566,0.00019875,0.0,0 STARLINK-4040,1 53151U 22083V   22236.91667824  .00019875  00000-0  14566-3 0  9993,2 53151  53.2145 217.1680 0002717  17.3949 190.2507 15.73204416  1303,6727.8830000000025,91.533,351.576,347.92,0.0
53151.0,STARLINK-4040,PAYLOAD,2022-08-25 06:00:02,15.73211889,0.0002968,53.2143,215.5204,16.145,280.5055,7.5375e-05,9.976e-05,0.0,0 STARLINK-4040,1 53151U 22083V   22237.25002315  .00009976  00000-0  75375-4 0  9996,2 53151  53.2143 215.5204 0002968  16.1450 280.5055 15.73211889  6732,6727.861,91.532,351.723,347.72900000000016,0.0
53151.0,STARLINK-4040,PAYLOAD,2022-08-25 14:00:01,15.73244424,0.0002821,53.2138,213.8701,13.5525,11.9783,-0.00066005,-0.00092443,0.0,0 STARLINK-4040,1 53151U 22083V   22237.58334491 -.00092443  00000-0 -66005-3 0  9997,2 53151  53.2138 213.8701 0002821  13.5525  11.9783 15.73244424  1304,6727.769,91.531,351.531,347.736,0.0
53151.0,STARLINK-4040,PAYLOAD,2022-08-25 18:00:00,15.73278289,0.0002646,53.2153,213.0395,14.344,235.6735,-0.0011959,-0.00165788,0.0,0 STARLINK-4040,1 53151U 22083V   22237.75001157 -.00165788  00000-0 -11959-2 0  9996,2 53151  53.2153 213.0395 0002646  14.3440 235.6735 15.73278289  6811,6727.672,91.529,351.31699999999995,347.75699999999995,0.0
53151.0,STARLINK-4040,PAYLOAD,2022-08-25 22:00:00,15.73224827,0.0002683999999999,53.2157,212.2121,15.0637,99.4497,-0.0014737,-0.00202809,0.0,0 STARLINK-4040,1 53151U 22083V   22237.91667824 -.00202809  00000-0 -14737-2 0  9996,2 53151  53.2157 212.2121 0002684  15.0637  99.4497 15.73224827  1300,6727.824000000001,91.532,351.495,347.884,0.0
53151.0,STARLINK-4040,PAYLOAD,2022-08-26 06:00:00,15.73162866,0.0002998999999999,53.217,210.5614,19.0731,184.2807,0.00048886,0.0006845,0.0,0 STARLINK-4040,1 53151U 22083V   22238.25001157  .00068450  00000-0  48886-3 0  9998,2 53151  53.2170 210.5614 0002999  19.0731 184.2807 15.73162866  6892,6728.001,91.535,351.884,347.848,0.0
53151.0,STARLINK-4040,PAYLOAD,2022-08-26 14:00:01,15.73229647,0.0002756,53.2147,208.921,11.279000000000002,281.1704,-0.00051063,-0.00071784,0.0,0 STARLINK-4040,1 53151U 22083V   22238.58335648 -.00071784  00000-0 -51063-3 0  9996,2 53151  53.2147 208.9210 0002756  11.2790 281.1704 15.73229647  6949,6727.811,91.531,351.53,347.821,0.0
53151.0,STARLINK-4040,PAYLOAD,2022-08-26 20:00:01,15.73158142,0.000263,53.215,207.6795,11.8889,257.2038,0.0006017,0.00084534,0.0,0 STARLINK-4040,1 53151U 22083V   22238.83334491  .00084534  00000-0  60170-3 0  9993,2 53151  53.2150 207.6795 0002630  11.8889 257.2038 15.73158142  6982,6728.015,91.536,351.649,348.11,0.0
53151.0,STARLINK-4040,PAYLOAD,2022-08-26 22:00:00,15.73213372,0.000272,53.2154,207.2659,13.5854,7.7203,-0.00014826,-0.00021393,0.0,0 STARLINK-4040,1 53151U 22083V   22238.91667824 -.00021393  00000-0 -14826-3 0  9994,2 53151  53.2154 207.2659 0002720  13.5854   7.7203 15.73213372  1302,6727.857,91.532,351.552,347.892,0.0
53151.0,STARLINK-4040,PAYLOAD,2022-08-27 14:00:01,15.72888069,0.0002686,53.2172,203.9577,15.1295,183.7807,-0.0085157,-0.01061051,0.0,0 STARLINK-4040,1 53151U 22083V   22239.58334491 -.01061051  00000-0 -85157-2 0  9999,2 53151  53.2172 203.9577 0002686  15.1295 183.7807 15.72888069  1307,6728.785,91.551,352.457,348.842,0.0
53151.0,STARLINK-4040,PAYLOAD,2022-08-27 20:00:01,15.72314463,0.0002768,53.2172,202.7189,13.979,161.0821,-0.0086738999999999,-0.01055129,0.0,0 STARLINK-4040,1 53151U 22083V   22239.83334491 -.01055129  00000-0 -86739-2 0  9993,2 53151  53.2172 202.7189 0002768  13.9790 161.0821 15.72314463  7145,6730.420999999999,91.585,354.149,350.423,0.0
53151.0,STARLINK-4040,PAYLOAD,2022-08-27 22:00:00,15.721249599999998,0.0002623,53.2174,202.3068,12.885,274.111,-0.0087372999999999,-0.01054267,0.0,0 STARLINK-4040,1 53151U 22083V   22239.91667824 -.01054267  00000-0 -87373-2 0  9998,2 53151  53.2174 202.3068 0002623  12.8850 274.1110 15.72124960  1304,6730.962,91.596,354.592,351.061,0.0
